NORAD_CAT_ID,OBJECT_NAME,OBJECT_TYPE,EPOCH,MEAN_MOTION,ECCENTRICITY,INCLINATION,RA_OF_ASC_NODE,ARG_OF_PERICENTER,MEAN_ANOMALY,BSTAR,MEAN_MOTION_DOT,MEAN_MOTION_DDOT,TLE_LINE0,TLE_LINE1,TLE_LINE2,SEMIMAJOR_AXIS,PERIOD,APOGEE,PERIGEE,DECAYED
53168.0,STARLINK-4105,PAYLOAD,2022-09-19 14:00:01,15.38066471,0.0001283,53.2177,93.5571,56.9974,344.2817,-0.030604,-0.01068525,0.0,0 STARLINK-4105,1 53168U 22083AN  22262.58334491 -.01068525  00000-0 -30604-1 0  9992,2 53168  53.2177  93.5571 0001283  56.9974 344.2817 15.38066471  1308,6829.964,93.624,452.706,450.953,0.0
53168.0,STARLINK-4105,PAYLOAD,2022-09-19 22:00:00,15.37306967,0.000147,53.2176,91.9983,50.8102,36.7149,-0.031389,-0.01069055,0.0,0 STARLINK-4105,1 53168U 22083AN  22262.91667824 -.01069055  00000-0 -31389-1 0  9998,2 53168  53.2176  91.9983 0001470  50.8102  36.7149 15.37306967  1307,6832.214,93.67,455.083,453.074,0.0
53168.0,STARLINK-4105,PAYLOAD,2022-09-20 14:00:01,15.35786817,0.0001476999999999,53.2179,88.8811,61.3226,115.9593,-0.032884,-0.01066312,0.0,0 STARLINK-4105,1 53168U 22083AN  22263.58334491 -.01066312  00000-0 -32884-1 0  9997,2 53168  53.2179  88.8811 0001477  61.3226 115.9593 15.35786817  1303,6836.721,93.763,459.596,457.577,0.0
53168.0,STARLINK-4105,PAYLOAD,2022-09-20 22:00:01,15.35026065,0.0001554999999999,53.2176,87.3277,55.0138,165.8403,-0.033624,-0.01064128,0.0,0 STARLINK-4105,1 53168U 22083AN  22263.91668981 -.01064128  00000-0 -33624-1 0  9994,2 53168  53.2176  87.3277 0001555  55.0138 165.8403 15.35026065 10888,6838.98,93.809,461.909,459.782,0.0
53168.0,STARLINK-4105,PAYLOAD,2022-09-21 22:00:00,15.32764846,0.0001208,53.2175,82.6717,71.1745,274.6587,-0.037027,-0.01088053,0.0,0 STARLINK-4105,1 53168U 22083AN  22264.91667824 -.01088053  00000-0 -37027-1 0  9994,2 53168  53.2175  82.6717 0001208  71.1745 274.6587 15.32764846  1304,6845.705,93.948,468.397,466.74300000000005,0.0
53168.0,STARLINK-4105,PAYLOAD,2022-09-22 14:00:01,15.31267072,0.0001391,53.2171,79.5755,51.8506,12.7771,-0.039948,-0.0111709999999999,0.0,0 STARLINK-4105,1 53168U 22083AN  22265.58334491 -.01117100  00000-0 -39948-1 0  9999,2 53168  53.2171  79.5755 0001391  51.8506  12.7771 15.31267072  1304,6850.168000000002,94.04,472.986,471.08,0.0
53168.0,STARLINK-4105,PAYLOAD,2022-09-22 22:00:00,15.30479952,0.0001403,53.2174,78.0331,60.4832,42.1895,-0.03941,-0.01078684,0.0,0 STARLINK-4105,1 53168U 22083AN  22265.91667824 -.01078684  00000-0 -39410-1 0  9992,2 53168  53.2174  78.0331 0001403  60.4832  42.1895 15.30479952  1308,6852.516,94.088,475.343,473.42,0.0
53168.0,STARLINK-4105,PAYLOAD,2022-09-23 06:00:00,15.29709887,0.0001375999999999,53.2175,76.4906,64.9519,74.8463,-0.039782,-0.01064331,0.0,0 STARLINK-4105,1 53168U 22083AN  22266.25001157 -.01064331  00000-0 -39782-1 0  9997,2 53168  53.2175  76.4906 0001376  64.9519  74.8463 15.29709887 11247,6854.816,94.135,477.624,475.73800000000006,0.0
53168.0,STARLINK-4105,PAYLOAD,2022-09-23 14:00:01,15.29007687,0.0001382,53.2176,74.9477,70.9448,105.031,-0.0437339999999999,-0.01137854,0.0,0 STARLINK-4105,1 53168U 22083AN  22266.58334491 -.01137854  00000-0 -43734-1 0  9996,2 53168  53.2176  74.9477 0001382  70.9448 105.0310 15.29007687  1302,6856.9140000000025,94.179,479.727,477.832,0.0
53168.0,STARLINK-4105,PAYLOAD,2022-09-23 22:00:00,15.28220428,0.0001512,53.2175,73.411,57.9639,153.3203,-0.043238,-0.0110134,0.0,0 STARLINK-4105,1 53168U 22083AN  22266.91667824 -.01101340  00000-0 -43238-1 0  9992,2 53168  53.2175  73.4110 0001512  57.9639 153.3203 15.28220428  1307,6859.269,94.227,482.171,480.097,0.0
53168.0,STARLINK-4105,PAYLOAD,2022-09-24 06:00:00,15.27452118,0.0001402,53.2177,71.8723,57.4772,188.1963,-0.043885,-0.01092531,0.0,0 STARLINK-4105,1 53168U 22083AN  22267.25001157 -.01092531  00000-0 -43885-1 0  9990,2 53168  53.2177  71.8723 0001402  57.4772 188.1963 15.27452118 11393,6861.569,94.275,484.396,482.472,0.0
53168.0,STARLINK-4105,PAYLOAD,2022-09-24 14:00:01,15.26715545,0.0001295,53.2174,70.3364,71.7774,207.4167,-0.046186,-0.01121453,0.0,0 STARLINK-4105,1 53168U 22083AN  22267.58335648 -.01121453  00000-0 -46186-1 0  9994,2 53168  53.2174  70.3364 0001295  71.7774 207.4167 15.26715545  1302,6863.776,94.32,486.53,484.752,0.0
53168.0,STARLINK-4105,PAYLOAD,2022-09-24 22:00:00,15.25911092,0.0001262,53.2173,68.8063,67.4878,244.2203,-0.044548,-0.01060906,0.0,0 STARLINK-4105,1 53168U 22083AN  22267.91667824 -.01060906  00000-0 -44548-1 0  9990,2 53168  53.2173  68.8063 0001262  67.4878 244.2203 15.25911092  1304,6866.188,94.37,488.919,487.186,0.0
53168.0,STARLINK-4105,PAYLOAD,2022-09-25 14:00:01,15.24394779,0.0001333,53.2176,65.7433,56.4794,317.6042,-0.046872,-0.01065837,0.0,0 STARLINK-4105,1 53168U 22083AN  22268.58334491 -.01065837  00000-0 -46872-1 0  9995,2 53168  53.2176  65.7433 0001333  56.4794 317.6042 15.24394779 11604,6870.74,94.464,493.521,491.69,0.0
53168.0,STARLINK-4105,PAYLOAD,2022-09-25 22:00:01,15.23633095,0.0001405,53.2173,64.2162,50.44600000000001,353.5201,-0.047754,-0.01061736,0.0,0 STARLINK-4105,1 53168U 22083AN  22268.91668981 -.01061736  00000-0 -47754-1 0  9990,2 53168  53.2173  64.2162 0001405  50.4460 353.5201 15.23633095  1306,6873.03,94.511,495.861,493.929,0.0
53168.0,STARLINK-4105,PAYLOAD,2022-09-26 10:00:00,15.22494142,0.000145,53.2174,61.9249,61.179,205.7417,-0.049422,-0.0106208,0.0,0 STARLINK-4105,1 53168U 22083AN  22269.41667824 -.01062080  00000-0 -49422-1 0  9998,2 53168  53.2174  61.9249 0001450  61.1790 205.7417 15.22494142 11723,6876.456999999999,94.582,499.319,497.325,0.0
53168.0,STARLINK-4105,PAYLOAD,2022-09-26 14:00:01,15.22135147,0.0001460999999999,53.2176,61.1619,59.0216,41.7726,-0.051457,-0.01091367,0.0,0 STARLINK-4105,1 53168U 22083AN  22269.58334491 -.01091367  00000-0 -51457-1 0  9998,2 53168  53.2176  61.1619 0001461  59.0216  41.7726 15.22135147  1300,6877.5390000000025,94.604,500.408,498.399,0.0
53168.0,STARLINK-4105,PAYLOAD,2022-09-26 22:00:00,15.21381415,0.0001621999999999,53.2174,59.6404,49.411,78.4589,-0.052875,-0.0111049,0.0,0 STARLINK-4105,1 53168U 22083AN  22269.91667824 -.01110490  00000-0 -52875-1 0  9998,2 53168  53.2174  59.6404 0001622  49.4110  78.4589 15.21381415  1301,6879.81,94.651,502.791,500.559,0.0
53168.0,STARLINK-4105,PAYLOAD,2022-09-27 06:00:00,15.20599254,0.0001638,53.2177,58.1183,49.3369,104.7145,-0.052599,-0.01068223,0.0,0 STARLINK-4105,1 53168U 22083AN  22270.25001157 -.01068223  00000-0 -52599-1 0  9997,2 53168  53.2177  58.1183 0001638  49.3369 104.7145 15.20599254 11857,6882.169,94.7,505.161,502.907,0.0
53168.0,STARLINK-4105,PAYLOAD,2022-09-27 14:00:01,15.197679199999998,0.0001537,53.218,56.5982,62.969,116.3777,-0.048848,-0.00975751,0.0,0 STARLINK-4105,1 53168U 22083AN  22270.58334491 -.00975751  00000-0 -48848-1 0  9997,2 53168  53.2180  56.5982 0001537  62.9690 116.3777 15.19767920  1300,6884.678000000001,94.751,507.602,505.485,0.0
53168.0,STARLINK-4105,PAYLOAD,2022-09-27 22:00:01,15.19107813,0.0001778,53.2175,55.0819,50.8653,152.8292,-0.0566399999999999,-0.0111267,0.0,0 STARLINK-4105,1 53168U 22083AN  22270.91668981 -.01112670  00000-0 -56640-1 0  9991,2 53168  53.2175  55.0819 0001778  50.8653 152.8292 15.19107813  1305,6886.6730000000025,94.792,509.762,507.31300000000016,0.0
53168.0,STARLINK-4105,PAYLOAD,2022-09-28 06:00:00,15.18335987,0.0001593,53.2179,53.5648,49.6456,177.4273,-0.057365,-0.0110266,0.0,0 STARLINK-4105,1 53168U 22083AN  22271.25001157 -.01102660  00000-0 -57365-1 0  9998,2 53168  53.2179  53.5648 0001593  49.6456 177.4273 15.18335987 12009,6889.005999999999,94.841,511.969,509.774,0.0
53168.0,STARLINK-4105,PAYLOAD,2022-09-28 14:00:01,15.17555941,0.0001645,53.2174,52.0533,51.2046,198.3938,-0.0569799999999999,-0.010731,0.0,0 STARLINK-4105,1 53168U 22083AN  22271.58334491 -.01073100  00000-0 -56980-1 0  9992,2 53168  53.2174  52.0533 0001645  51.2046 198.3938 15.17555941  1307,6891.3669999999975,94.889,514.365,512.0980000000002,0.0
53168.0,STARLINK-4105,PAYLOAD,2022-09-28 22:00:00,15.16833379,0.0001595999999999,53.2176,50.5402,49.9331,221.2517,-0.061119,-0.01123235,0.0,0 STARLINK-4105,1 53168U 22083AN  22271.91667824 -.01123235  00000-0 -61119-1 0  9993,2 53168  53.2176  50.5402 0001596  49.9331 221.2517 15.16833379  1305,6893.555,94.935,516.52,514.32,0.0
53168.0,STARLINK-4105,PAYLOAD,2022-09-29 14:00:01,15.15304942,0.0001392,53.2182,47.5198,63.3432,248.3187,-0.063044,-0.0111,0.0,0 STARLINK-4105,1 53168U 22083AN  22272.58334491 -.01110000  00000-0 -63044-1 0  9993,2 53168  53.2182  47.5198 0001392  63.3432 248.3187 15.15304942 12208,6898.19,95.03,521.015,519.095,0.0
53168.0,STARLINK-4105,PAYLOAD,2022-09-29 22:00:00,15.14606335,0.0001574,53.2177,46.0138,38.6268,291.87,-0.069475,-0.0119202999999999,0.0,0 STARLINK-4105,1 53168U 22083AN  22272.91667824 -.01192030  00000-0 -69475-1 0  9996,2 53168  53.2177  46.0138 0001574  38.6268 291.8700 15.14606335  1307,6900.311,95.074,523.262,521.09,0.0
53168.0,STARLINK-4105,PAYLOAD,2022-09-30 14:00:01,15.13016681,0.0001428,53.2183,43.0043,52.9319,312.5981,-0.066447,-0.01097451,0.0,0 STARLINK-4105,1 53168U 22083AN  22273.58334491 -.01097451  00000-0 -66447-1 0  9998,2 53168  53.2183  43.0043 0001428  52.9319 312.5981 15.13016681 12368,6905.143,95.174,527.994,526.0219999999998,0.0
53168.0,STARLINK-4105,PAYLOAD,2022-09-30 22:00:00,15.1228436,0.0001595999999999,53.2177,41.5031,40.7836,340.8611,-0.0702899999999999,-0.01134245,0.0,0 STARLINK-4105,1 53168U 22083AN  22273.91667824 -.01134245  00000-0 -70290-1 0  9998,2 53168  53.2177  41.5031 0001596  40.7836 340.8611 15.12284360  1302,6907.371999999999,95.22,530.34,528.135,0.0
53168.0,STARLINK-4105,PAYLOAD,2022-10-01 14:00:01,15.10721545,0.0001633,53.2175,38.5067,43.9288,7.2569,-0.069276,-0.01074799,0.0,0 STARLINK-4105,1 53168U 22083AN  22274.58334491 -.01074799  00000-0 -69276-1 0  9992,2 53168  53.2175  38.5067 0001633  43.9288   7.2569 15.10721545  1308,6912.135,95.319,535.129,532.871,0.0
